0 NIMBUS 2 DEB
1 25825U 66040H   13282.59524582  .00001578  00000-0  24593-2 0  2207
2 25825 100.3440 051.3006 0051588 085.9588 337.8403 13.51903457312700
0 NIMBUS 2 DEB
1 25825U 66040H   13283.86643559  .00001690  00000-0  26293-2 0  2219
2 25825 100.3440 052.6237 0051303 082.6804 044.7196 13.51909340312878
0 NIMBUS 2 DEB
1 25825U 66040H   13285.33138390  .00001636  00000-0  25467-2 0  2228
2 25825 100.3440 054.1486 0051090 078.9469 334.6076 13.51913430313075
0 NIMBUS 2 DEB
1 25825U 66040H   13286.37040431  .00001704  00000-0  26500-2 0  2237
2 25825 100.3442 055.2303 0050922 076.2935 351.5328 13.51917300313213
0 NIMBUS 2 DEB
1 25825U 66040H   13288.58938779  .00002196  00000-0  33937-2 0  2242
2 25825 100.3440 057.5395 0050833 070.8770 351.1531 13.51925777313517
0 NIMBUS 2 DEB
1 25825U 66040H   13289.85980532  .00002223  00000-0  34347-2 0  2255
2 25825 100.3443 058.8621 0050583 067.5531 054.4312 13.51931772313686
0 NIMBUS 2 DEB
1 25825U 66040H   13290.89552598  .00002180  00000-0  33694-2 0  2265
2 25825 100.3444 059.9404 0050388 064.8440 055.4318 13.51935351313820
0 NIMBUS 2 DEB
1 25825U 66040H   13291.93277551  .00002136  00000-0  33035-2 0  2275
2 25825 100.3445 061.0202 0050261 062.1538 063.8663 13.51939568313965
0 NIMBUS 2 DEB
1 25825U 66040H   13293.18943495  .00002395  00000-0  36941-2 0  2288
2 25825 100.3445 062.3284 0050081 058.8598 060.2575 13.51944309314139
0 NIMBUS 2 DEB
1 25825U 66040H   13294.36158596  .00002578  00000-0  39711-2 0  2291
2 25825 100.3442 063.5486 0049960 055.7768 005.3596 13.51950477314295
0 NIMBUS 2 DEB
1 25825U 66040H   13295.92827498  .00002649  00000-0  40781-2 0  2308
2 25825 100.3436 065.1793 0049742 051.5885 070.8632 13.51957047314501
